RADUGA 1 [-]            
1 08513U 75123A   22218.81530193  .00000019  00000+0  00000+0 0  9998
2 08513   6.4234 287.8698 0008387 213.5581 172.3770  1.00262445180670
RADUGA 2 [-]            
1 09416U 76092A   22218.67335583 -.00000064  00000+0  00000+0 0  9998
2 09416   7.0864 289.8490 0025427 357.9839 342.9480  1.00298436115191
RADUGA 3 [-]            
1 10159U 77071A   22218.60874042 -.00000327  00000+0  00000+0 0  9995
2 10159   7.7013 292.4285 0009767 230.4162 119.7460  1.00230715162898
RADUGA 4 [-]            
1 10987U 78073A   22218.80989552  .00000163  00000+0  00000+0 0  9999
2 10987   8.3238 295.9139 0007236 359.2832 349.3664  1.00273974105452
RADUGA 5 [-]            
1 11343U 79035A   22218.76063868 -.00000176  00000+0  00000+0 0  9998
2 11343   8.7821 298.6537 0007411 171.5508 204.4955  1.00270458115216
RADUGA 6 [-]            
1 11708U 80016A   22219.02357309  .00000078  00000+0  00000+0 0  9990
2 11708   9.1394 301.6999 0003649 193.3956 244.8947  1.00330070108001
RADUGA 7 [-]            
1 12003U 80081A   22219.08338390 -.00000201  00000+0  00000+0 0  9995
2 12003   9.3225 303.6364 0009767 255.2522 116.8618  1.00296164109286
RADUGA 8 [-]            
1 12351U 81027A   22218.73938528 -.00000209  00000+0  00000+0 0  9990
2 12351   9.6540 304.2343 0083121 228.0192 134.9449  1.00417283108397
RADUGA 9 [-]            
1 12618U 81069A   22219.35535694  .00000125  00000+0  00000+0 0  9994
2 12618   9.8698 307.1635 0005328 154.0556  30.3280  1.00331380114190
RADUGA 10 [-]           
1 12897U 81102A   22218.86048758 -.00000147  00000+0  00000+0 0  9991
2 12897   9.9560 308.1392 0006826 176.0550 222.6337  1.00290825103208
RADUGA 11 [-]           
1 13669U 82113A   22219.21802111 -.00000070  00000+0  00000+0 0  9998
2 13669  11.9902 321.7759 0037771 252.7007 105.0101  0.97708440107758
RADUGA 12 [-]           
1 13974U 83028A   22218.81547633  .00000005  00000+0  00000+0 0  9990
2 13974  11.0916 317.8602 0004274 128.6121 227.8651  1.00278768155235
RADUGA 13 [-]           
1 14307U 83088A   22219.08748231 -.00000187  00000+0  00000+0 0  9996
2 14307  12.2375 323.3258 0015236  49.2195 325.5393  0.98175837105093
RADUGA 14 [-]           
1 14725U 84016A   22218.83625223 -.00000192  00000+0  00000+0 0  9995
2 14725  11.2955 321.6022 0006567 140.2257 240.9167  1.00278662103965
RADUGA 15 [-]           
1 15057U 84063A   22217.67839965 -.00000353  00000+0  00000+0 0  9996
2 15057  11.4190 322.6027 0006800 156.6061 199.5073  1.00323752126946
RADUGA 16 [-]           
1 15946U 85070A   22218.61399117  .00000082  00000+0  00000+0 0  9995
2 15946  11.8744 327.2470 0003379 151.6983 244.9092  1.00277795108076
RADUGA 17 [-]           
1 16250U 85107A   22219.22063711 -.00000286  00000+0  00000+0 0  9998
2 16250  11.9961 328.6200 0015659 178.0953 187.1771  1.00148606137675
RADUGA 18 [-]           
1 16497U 86007A   22218.14216146 -.00000221  00000+0  00000+0 0  9992
2 16497  12.8034 331.3345 0076599 164.7470 191.2674  0.98814330131915
RADUGA 19 [-]           
1 17046U 86082A   22218.20842573 -.00000133  00000+0  00000+0 0  9994
2 17046  13.2283 335.2549 0014943 146.7798 209.8822  0.98460600129010
RADUGA 20 [-]           
1 17611U 87028A   22218.70813414 -.00000131  00000+0  00000+0 0  9998
2 17611  15.2390 338.7752 0032161 136.4657 221.9292  0.95961975124766
RADUGA 21 [-]           
1 18631U 87100A   22218.56702522  .00000114  00000+0  00000+0 0  9993
2 18631  13.3129 336.1249 0004694 128.0314 258.5916  1.00278511126943
RADUGA 22 [-]           
1 19596U 88095A   22218.76311943 -.00000345  00000+0  00000+0 0  9990
2 19596  13.2923 340.3985 0008677 135.9690 244.7482  1.00238631107514
RADUGA 23 [-]           
1 19928U 89030A   22218.02018008  .00000132  00000+0  00000+0 0  9997
2 19928  13.4375 342.2214 0023173 159.8340 215.6223  1.00317451120701
RADUGA-1 1 [-]          
1 20083U 89048A   22218.67896706 -.00000221  00000+0  00000+0 0  9990
2 20083  14.1879 345.2691 0023705 115.0828 272.6774  0.98711333117354
RADUGA 24 [-]           
1 20367U 89098A   22219.39011480 -.00000036  00000+0  00000+0 0  9992
2 20367  14.0088 344.4754 0003053 130.5670  50.1709  1.00207351118893
RADUGA 25 [-]           
1 20499U 90016A   22218.33660441 -.00000297  00000+0  00000+0 0  9999
2 20499  13.7792 345.1319 0006876 138.3295 254.1051  1.00199603118769
RADUGA 26 [-]           
1 21016U 90112A   22218.95804885  .00000007  00000+0  00000+0 0  9990
2 21016  14.0880 348.3822 0008540  95.5705 277.7497  1.00311287116106
RADUGA-1 2 [-]          
1 21038U 90116A   22218.95578164  .00000091  00000+0  00000+0 0  9999
2 21038  14.1255 348.4552 0009831 102.5858 258.0942  1.00259110115775
RADUGA 27 [-]           
1 21132U 91014A   22218.77166602  .00000084  00000+0  00000+0 0  9994
2 21132  14.6363 348.0163 0005313 103.9951 158.5840  1.00271511115162
RADUGA 28 [-]           
1 21821U 91087A   22218.82332438 -.00000339  00000+0  00000+0 0  9991
2 21821  14.3991 351.7249 0009367 122.2980 243.0390  1.00211922112185
RADUGA 29 [-]           
1 22557U 93013A   22218.75828715  .00000121  00000+0  00000+0 0  9997
2 22557  14.5988 355.9013 0008825 111.4550 148.2487  1.00334425107536
RADUGA 30 [-]           
1 22836U 93062A   22218.72369551 -.00000122  00000+0  00000+0 0  9998
2 22836  14.6371 357.8717 0001962  60.4285 234.0715  1.00259193 31855
RADUGA-1 3 [-]          
1 22981U 94008A   22218.82236516 -.00000316  00000+0  00000+0 0  9990
2 22981  14.7141 359.0223 0005716 105.5939 246.6010  1.00256203104336
RADUGA 31 [-]           
1 23010U 94012A   22218.69557139  .00000058  00000+0  00000+0 0  9993
2 23010  14.6829 359.0208 0006913  97.0600 163.1715  1.00320300104206
RADUGA 32 [-]           
1 23448U 94087A   22218.72369506 -.00000126  00000+0  00000+0 0  9990
2 23448  14.6619   1.7292 0004861 181.9295 109.0590  1.00261822118731
RADUGA-1 4 [-]          
1 25642U 99010A   22218.76761938  .00000121  00000+0  00000+0 0  9992
2 25642  15.2127  13.3238 0000783 177.8526  76.2428  1.00289766 85802
RADUGA-1 5 [-]          
1 26477U 00049A   22218.59574517  .00000113  00000+0  00000+0 0  9990
2 26477  13.1545  18.1446 0006636  68.5786 126.4488  1.00267798 80272
RADUGA-1 6 [-]          
1 26936U 01045A   22218.66114779 -.00000155  00000+0  00000+0 0  9992
2 26936  13.3120  24.4502 0016379 158.1571  21.9498  0.97745689 74817
RADUGA-1 7 [-]          
1 28194U 04010A   22219.33029535 -.00000360  00000+0  00000+0 0  9993
2 28194  12.0261  31.2931 0002165 118.7559  53.1521  1.00253302 67261
RADUGA-1M 1 [-]         
1 32373U 07058A   22219.23912361  .00000044  00000+0  00000+0 0  9997
2 32373   7.0042  63.7173 0004821  29.5946 339.8734  0.99396960 54300
RADUGA-1 8 [-]          
1 34264U 09010A   22218.71646826  .00000063  00000+0  00000+0 0  9991
2 34264   9.3218  53.7254 0014649   6.1173 176.2662  0.99825931 49090
RADUGA-1M 2 [+]         
1 36358U 10002A   22219.50743789 -.00000184  00000+0  00000+0 0  9999
2 36358   0.0467 242.6632 0002374 281.9978  59.0155  1.00274974 45872
RADUGA-1M 3 [+]         
1 39375U 13062A   22218.93174287  .00000156  00000+0  00000+0 0  9995
2 39375   2.3534  89.2205 0002223 156.6623  79.9482  1.00271663 31986
